FLOCK 4V-3              
1 46322U 20061BC  21349.46508885  .00001090  00000+0  67580-4 0  9998
2 46322  97.4731  59.3010 0004628  97.8520 262.3236 15.11792542 70670
FLOCK 4V-16             
1 46527U 20061BD  21349.48434152  .00003258  00000+0  16835-3 0  9996
2 46527  97.4237  59.2675 0009367  50.4952 309.7108 15.16942221 66960
FLOCK 4V-15             
1 46528U 20061BE  21348.84692010  .00001091  00000+0  58115-4 0  9996
2 46528  97.4207  59.1352 0004530  84.3320 275.8430 15.17262565 67252
FLOCK 4V-17             
1 46529U 20061BF  21349.14361328  .00001181  00000+0  62590-4 0  9998
2 46529  97.4175  59.1859 0004329  70.5827 289.5874 15.17297517 66498
FLOCK 4V-21             
1 46596U 20061BK  21348.59776234  .00003418  00000+0  17493-3 0  9992
2 46596  97.4155  58.4301 0005021  50.6439 309.5239 15.17277521 64569
FLOCK 4V-18             
1 46597U 20061BG  21348.85221538  .00002199  00000+0  11389-3 0  9997
2 46597  97.4279  59.0981 0008480  59.1714 301.0353 15.17214449 65813
FLOCK 4V-19             
1 46609U 20061BH  21348.62494596  .00003218  00000+0  16537-3 0  9995
2 46609  97.4164  58.5761 0004539  55.4857 304.6804 15.17176536 65340
FLOCK 4V-20             
1 46612U 20061BJ  21348.88579025  .00002970  00000+0  15296-3 0  9993
2 46612  97.4264  58.9758 0008864  63.4746 296.7395 15.17135224 64889
FLOCK 4V-22             
1 46735U 20061BL  21348.64293422  .00001143  00000+0  60650-4 0  9993
2 46735  97.4096  58.1538 0007418  53.6817 306.5103 15.17306997 63681
FLOCK 4V-23             
1 46737U 20061BM  21348.80024262  .00001072  00000+0  57076-4 0  9996
2 46737  97.4170  58.7122 0005520  46.1836 313.9853 15.17306760 63649
FLOCK 4V-24             
1 46738U 20061BN  21349.45202701  .00002329  00000+0  12049-3 0  9991
2 46738  97.4302  59.6599 0008109  65.6906 294.5213 15.17194171 63303
FLOCK 4V-25             
1 46812U 20061BP  21348.82910730  .00001792  00000+0  93530-4 0  9990
2 46812  97.4190  58.8123 0006442  40.7389 319.4292 15.17186232 62865
FLOCK 4E'-1             
1 46813U 20077A   21349.41865229  .00003297  00000+0  16440-3 0  9992
2 46813  97.4486  49.8541 0011600 344.3042  15.7831 15.18182238 62520
FLOCK 4E'-7             
1 46814U 20077B   21349.43562603  .00003424  00000+0  17077-3 0  9994
2 46814  97.4488  49.9915 0012378 339.5711  20.5026 15.18137520 62536
FLOCK 4E'-9             
1 46815U 20077C   21349.43108099  .00000919  00000+0  47841-4 0  9999
2 46815  97.4447  49.9533 0011166 336.1044  23.9670 15.18460920 62540
FLOCK 4E'-8             
1 46816U 20077D   21349.47169245  .00004128  00000+0  20382-3 0  9990
2 46816  97.4508  50.3399 0009276 330.3761  29.6946 15.18403710 62550
FLOCK 4E'-5             
1 46817U 20077E   21349.43264825  .00001257  00000+0  63716-4 0  9996
2 46817  97.4504  50.5448 0013428 322.4585  37.5711 15.18723060 62566
FLOCK 4E'-3             
1 46819U 20077G   21349.45931253  .00001578  00000+0  79449-4 0  9992
2 46819  97.4485  50.5309 0013985 315.5125  44.4985 15.18588580 62570
FLOCK 4E'-2             
1 46820U 20077H   21349.48095208  .00000726  00000+0  38394-4 0  9996
2 46820  97.4528  50.9109 0012631 305.1265  54.8785 15.18560369 62588
FLOCK 4E'-4             
1 46821U 20077J   21349.44566745  .00001355  00000+0  68749-4 0  9998
2 46821  97.4494  50.7519 0013312 302.1866  57.8076 15.18582629 62540
FLOCK 4E'-6             
1 46822U 20077K   21349.13664347  .00000261  00000+0  15927-4 0  9997
2 46822  97.4453  49.9608 0011498 315.2379  44.7923 15.18552639 62524
FLOCK 4V-26             
1 46825U 20061BQ  21348.67724069  .00002061  00000+0  10699-3 0  9999
2 46825  97.4306  58.8494 0007613  71.1468 289.0587 15.17203746 62382
FLOCK 4S-22             
1 47452U 21006AR  21348.79883926  .00000848  00000+0  51058-4 0  9993
2 47452  97.4722  46.7596 0011197 187.4284 172.6783 15.13419606 49323
FLOCK 4S-21             
1 47456U 21006AV  21348.40371632  .00000892  00000+0  53504-4 0  9998
2 47456  97.4730  46.4030 0010991 188.6917 171.4125 15.13430191 49265
FLOCK 4S-11             
1 47462U 21006BB  21348.39251778  .00000990  00000+0  61027-4 0  9999
2 47462  97.4686  45.6484 0007687 209.4336 150.6463 15.12196413 49226
FLOCK 4S-33             
1 47469U 21006BJ  21348.76314720  .00002834  00000+0  16310-3 0  9997
2 47469  97.4688  46.2148 0006947 202.3514 157.7416 15.13228232 49296
FLOCK 4S-12             
1 47471U 21006BL  21348.69269106  .00001958  00000+0  11380-3 0  9997
2 47471  97.4716  46.2938 0007530 206.6462 153.4383 15.13235916 49288
FLOCK 4S-13             
1 47472U 21006BM  21348.73912247  .00002352  00000+0  13574-3 0  9990
2 47472  97.4745  46.4853 0007698 204.0342 156.0531 15.13284503 49294
FLOCK 4S-35             
1 47473U 21006BN  21349.14024019  .00002144  00000+0  12433-3 0  9990
2 47473  97.4734  46.8272 0007277 198.2509 161.8462 15.13211428 49354
FLOCK 4S-8              
1 47474U 21006BP  21348.54342616  .00000778  00000+0  47413-4 0  9998
2 47474  97.4658  45.9374 0007877 204.3716 155.7144 15.13235682 49265
FLOCK 4S-31             
1 47475U 21006BQ  21349.13623911  .00001493  00000+0  87478-4 0  9995
2 47475  97.4666  46.5547 0007265 199.2379 160.8579 15.13292529 49354
FLOCK 4S-34             
1 47477U 21006BS  21348.88023814  .00002152  00000+0  12466-3 0  9991
2 47477  97.4730  46.5486 0007144 199.4708 160.6251 15.13241550 49313
FLOCK 4S-9              
1 47478U 21006BT  21348.74869012  .00002464  00000+0  14216-3 0  9996
2 47478  97.4673  46.1695 0007631 205.5744 154.5110 15.13262921 49296
FLOCK 4S-32             
1 47479U 21006BU  21349.14666502  .00001828  00000+0  10626-3 0  9995
2 47479  97.4676  46.5738 0007106 201.0975 158.9964 15.13307085 49359
FLOCK 4S-39             
1 47490U 21006CF  21349.43975958  .00000994  00000+0  59395-4 0  9998
2 47490  97.4761  47.4599 0010239 188.8853 171.2199 15.13310095 49410
FLOCK 4S-4              
1 47491U 21006CG  21349.43791013  .00001775  00000+0  10310-3 0  9998
2 47491  97.4643  46.9695 0010044 186.3327 173.7779 15.13352660 49419
FLOCK 4S-17             
1 47492U 21006CH  21349.43386041  .00001260  00000+0  74271-4 0  9996
2 47492  97.4769  47.4801 0010377 188.0820 172.0245 15.13330180 49413
FLOCK 4S-3              
1 47494U 21006CK  21348.59804669  .00001021  00000+0  61253-4 0  9996
2 47494  97.4656  46.1425 0010192 188.6269 171.4789 15.13102006 49281
FLOCK 4S-27             
1 47495U 21006CL  21349.09945899  .00000936  00000+0  56134-4 0  9990
2 47495  97.4651  46.6878 0010566 188.8370 171.2677 15.13328398 49361
FLOCK 4S-18             
1 47496U 21006CM  21348.63422049  .00000959  00000+0  57412-4 0  9992
2 47496  97.4757  46.6721 0010464 190.4541 169.6474 15.13345941 49293
FLOCK 4S-26             
1 47497U 21006CN  21348.56400889  .00001041  00000+0  61988-4 0  9999
2 47497  97.4657  46.1936 0010606 190.4406 169.6606 15.13348908 49286
FLOCK 4S-2              
1 47498U 21006CP  21348.82321809  .00000878  00000+0  52881-4 0  9992
2 47498  97.4658  46.4618 0010362 186.2773 173.8330 15.13325616 49324
FLOCK 4S-40             
1 47499U 21006CQ  21349.41888052  .00000978  00000+0  58379-4 0  9996
2 47499  97.4752  47.4490 0010627 188.4028 171.7027 15.13397384 49411
FLOCK 4S-19             
1 47500U 21006CR  21349.14883086  .00000792  00000+0  48003-4 0  9998
2 47500  97.4753  47.1961 0010728 186.9753 173.1331 15.13342796 49371
FLOCK 4S-28             
1 47514U 21006DE  21349.17762405  .00003120  00000+0  17895-3 0  9999
2 47514  97.4650  46.5687 0008050 196.2553 163.8422 15.13271369 50328
FLOCK 4S-5              
1 47515U 21006DF  21349.43926563  .00002165  00000+0  12520-3 0  9994
2 47515  97.4639  46.8054 0008291 197.7830 162.3112 15.13298105 49402
FLOCK 4S-16             
1 47516U 21006DG  21348.58868999  .00000929  00000+0  55848-4 0  9995
2 47516  97.4761  46.4531 0007970 201.6864 158.4031 15.13275319 50231
FLOCK 4S-6              
1 47518U 21006DJ  21348.59160374  .00001113  00000+0  66144-4 0  9997
2 47518  97.4653  45.9941 0008038 202.2055 157.8829 15.13302261 50243
FLOCK 4S-29             
1 47520U 21006DL  21349.12062971  .00001703  00000+0  99272-4 0  9997
2 47520  97.4659  46.5389 0007593 198.8410 161.2542 15.13293937 49355
FLOCK 4S-15             
1 47521U 21006DM  21349.43147863  .00001100  00000+0  65242-4 0  9997
2 47521  97.4748  47.2838 0008000 199.5433 160.5493 15.13381847 50378
FLOCK 4S-37             
1 47522U 21006DN  21349.12443287  .00003171  00000+0  18171-3 0  9991
2 47522  97.4747  46.9076 0007698 199.9903 160.1028 15.13296084 50329
FLOCK 4S-10             
1 47523U 21006DP  21348.62904184  .00002587  00000+0  14913-3 0  9994
2 47523  97.4683  46.0659 0007669 206.6866 153.3972 15.13241085 49274
FLOCK 4S-7              
1 47527U 21006DT  21349.39327414  .00002175  00000+0  12577-3 0  9995
2 47527  97.4656  46.7677 0007994 200.5199 159.5712 15.13302612 50353
FLOCK 4S-14             
1 47528U 21006DU  21349.12934824  .00002691  00000+0  15467-3 0  9990
2 47528  97.4751  46.9107 0007831 201.2870 158.8036 15.13318371 50310
FLOCK 4S-36             
1 47530U 21006DW  21348.73585754  .00002353  00000+0  13575-3 0  9996
2 47530  97.4742  46.4802 0007347 199.4812 160.6139 15.13307723 50253
FLOCK 4S-24             
1 47539U 21006DZ  21349.13435392  .00000802  00000+0  48515-4 0  9992
2 47539  97.4688  46.9332 0011245 186.3625 173.7466 15.13394386 49373
FLOCK 4S-20             
1 47540U 21006EA  21349.13734051  .00000782  00000+0  47413-4 0  9991
2 47540  97.4742  47.1620 0010921 186.3077 173.8019 15.13384956 48444
FLOCK 4S-25             
1 47542U 21006EC  21349.14621640  .00000825  00000+0  49864-4 0  9993
2 47542  97.4667  46.8336 0010836 187.4477 172.6595 15.13361041 48449
FLOCK 4S-1              
1 47543U 21006ED  21348.54680564  .00000816  00000+0  49304-4 0  9996
2 47543  97.4666  46.2493 0010395 186.3445 173.7656 15.13386227 48353
FLOCK 4S-30             
1 47544U 21006EE  21348.59491153  .00001705  00000+0  99359-4 0  9999
2 47544  97.4664  46.0454 0007569 200.2273 159.8659 15.13310936 50233
